OBJECT_NAME,OBJECT_ID,EPOCH,MEAN_MOTION,ECCENTRICITY,INCLINATION,RA_OF_ASC_NODE,ARG_OF_PERICENTER,MEAN_ANOMALY,EPHEMERIS_TYPE,CLASSIFICATION_TYPE,NORAD_CAT_ID,ELEMENT_SET_NO,REV_AT_EPOCH,BSTAR,MEAN_MOTION_DOT,MEAN_MOTION_DDOT
HST,1990-037B,2026-06-13T05:33:13.905216,15.30704754,.0001932,28.4712,107.6084,101.0971,258.9842,0,U,20580,999,78796,.19317E-3,.6133E-4,0
POLAR,1996-013A,2026-06-13T04:27:37.754496,1.29846128,.64665534,79.8486,227.0990,209.2175,89.5922,0,U,23802,999,14480,0,.143E-5,0
SWAS,1998-071A,2026-06-13T15:16:24.787200,15.09608009,.0008754,69.8961,236.6760,263.7773,96.2393,0,U,25560,999,49673,.21948E-3,.3434E-4,0
CXO,1999-040B,2026-06-15T17:32:59.918784,0.37804362,.7842889,56.1776,116.6293,310.3072,0.0447,0,U,25867,999,1731,0,.579E-5,0
XMM-NEWTON,1999-066A,2026-06-14T08:34:59.652768,0.50124916,.46758429,64.5048,283.0226,64.9764,0.1205,0,U,25989,999,2299,0,.64E-6,0
TERRA,1999-068A,2026-06-13T21:19:35.180832,14.61100761,.0001324,97.9457,214.5655,201.8095,331.1346,0,U,25994,999,40912,.83151E-4,.364E-5,0
CLUSTER II-FM7 (SAMBA),2000-041A,2026-06-14T21:49:34.992192,0.44879327,.90502639,149.9112,50.5199,267.6271,359.8755,0,U,26410,999,2029,0,.8926E-4,0
CLUSTER II-FM8 (TANGO),2000-045B,2026-06-12T22:27:38.392992,0.44415453,.90555409,150.1475,51.1959,268.1324,3.0125,0,U,26464,999,2029,0,.6615E-4,0
ODIN,2001-007A,2026-06-13T20:30:49.788288,15.74753031,.0006686,97.3842,205.5864,146.6594,213.5093,0,U,26702,999,38887,.12713E-2,.190366E-2,0
TIMED,2001-055B,2026-06-13T15:54:36.472032,14.95288525,.0000928,74.0675,242.1144,342.5131,17.6021,0,U,26998,999,33029,.10851E-3,.1156E-4,0
CORIOLIS,2003-001A,2026-06-13T21:14:51.863136,14.19943971,.0013206,98.7125,171.8205,218.7806,141.2424,0,U,27640,999,21375,.62201E-4,.89E-6,0
SORCE,2003-004A,2026-06-13T18:03:29.716992,15.03697081,.0016917,39.9912,281.2748,23.3384,336.8175,0,U,27651,999,27138,.21434E-3,.2846E-4,0
MOST,2003-031D,2026-06-13T18:17:03.320736,14.21321845,.0008691,98.7045,172.5357,261.6529,98.3663,0,U,27843,999,19022,.4919E-4,.63E-6,0
SCISAT 1,2003-036A,2026-06-13T09:02:04.581024,14.81444219,.0008628,73.9285,178.9144,248.3864,111.6394,0,U,27858,999,23088,.64217071E-4,.466E-5,0
SWIFT,2004-047A,2026-06-13T19:34:29.485056,15.68026252,.0001739,20.5520,210.9067,231.4191,128.6100,0,U,28485,999,18633,.4108E-3,.48836E-3,0
HINODE (SOLAR-B),2006-041A,2026-06-13T18:41:26.216160,14.68618916,.0016123,98.0549,180.9816,301.5450,58.4180,0,U,29479,999,5437,.12007E-3,.65E-5,0
SHIJIAN-6 02A (SJ-6 02A),2006-046A,2026-06-13T20:37:25.607424,15.16905618,.0004217,97.6366,205.9003,134.0398,226.1183,0,U,29505,999,7176,.31969E-3,.6233E-4,0
SHIJIAN-6 02B (SJ-6 02B),2006-046B,2026-06-13T21:08:10.967136,15.01368697,.0015193,97.7163,193.9595,70.0494,290.2365,0,U,29506,999,7024,.91044E-4,.1115E-4,0
FGRST (GLAST),2008-029A,2026-06-13T13:28:57.999360,15.23933052,.0007579,25.5812,229.6566,284.3079,75.6618,0,U,33053,999,99528,.10986E-3,.3071E-4,0
SDO,2010-005A,2026-06-13T07:21:38.625984,1.00270114,.00016732,34.6434,86.4016,51.3791,132.2019,0,U,36395,999,6002,0,-.88E-6,0
CRYOSAT 2,2010-013A,2026-06-13T20:12:51.079104,14.51898078,.000218,92.0352,276.4885,88.1498,271.9958,0,U,36508,999,85759,.40436E-4,.166E-5,0
X-SAT,2011-015C,2026-06-13T20:32:09.839616,14.25205090,.001419,98.3502,142.0372,358.3835,1.7297,0,U,37389,999,78720,.39949E-4,.53E-6,0
GCOM-W1 (SHIZUKU),2012-025A,2026-06-13T19:17:39.709248,14.57121871,.0001811,98.2022,105.4108,77.2775,336.4931,0,U,38337,999,74854,.10504E-3,.428E-5,0
NUSTAR,2012-031A,2026-06-13T20:00:01.999008,15.08774438,.0007168,6.0264,59.2827,53.9229,127.9045,0,U,38358,999,130,.45811E-3,.8282E-4,0
NEOSSAT,2013-009D,2026-06-13T10:42:52.562880,14.35825190,.00098104,98.4175,344.5681,256.3381,103.6713,0,U,39089,999,69620,.62388175E-4,.138E-5,0
BRITE-AUSTRIA,2013-009F,2026-06-13T10:43:34.682016,14.36540717,.00090312,98.3993,343.9753,249.1124,110.9097,0,U,39091,999,69651,.68447046E-4,.158E-5,0
IRIS,2013-033A,2026-06-13T19:08:52.224288,14.85879320,.0023788,97.9332,4.0856,333.2772,26.7216,0,U,39197,999,69987,.12062E-3,.1E-4,0
HISAKI (SPRINT-A),2013-049A,2026-06-12T22:20:08.675808,13.55544353,.01368916,29.7192,241.6544,342.3499,17.2350,0,U,39253,999,63084,.10132348E-3,.139E-5,0
CASSIOPE,2013-055A,2026-06-13T19:34:51.555072,15.24889463,.0293947,80.9157,70.8148,73.7607,289.5747,0,U,39265,999,66715,.53049E-3,.4843E-3,-.44779E-6
STSAT-3,2013-066G,2026-06-13T20:24:04.346784,15.02739789,.0011146,97.6212,134.7915,53.6998,306.5255,0,U,39422,999,68370,.26057E-3,.3426E-4,0
SWARM B,2013-067A,2026-06-13T19:04:48.690336,15.28532647,.0003362,87.7433,343.3477,88.2781,271.8853,0,U,39451,999,68272,.12249E-3,.3433E-4,0
