HST                     
1 20580U 90037B   26164.23141094  .00006133  00000+0  19317-3 0  9993
2 20580  28.4712 107.6084 0001932 101.0971 258.9842 15.30704754787962
POLAR                   
1 23802U 96013A   26164.18585364  .00000143  00000+0  00000+0 0  9999
2 23802  79.8486 227.0990 6466553 209.2175  89.5922  1.29846128144802
SWAS                    
1 25560U 98071A   26164.63639800  .00003434  00000+0  21948-3 0  9997
2 25560  69.8961 236.6760 0008754 263.7773  96.2393 15.09608009496737
CXO                     
1 25867U 99040B   26166.73124906  .00000579  00000+0  00000+0 0  9992
2 25867  56.1776 116.6293 7842889 310.3072   0.0447  0.37804362 17312
XMM-NEWTON              
1 25989U 99066A   26165.35763487  .00000064  00000+0  00000+0 0  9994
2 25989  64.5048 283.0226 4675842  64.9764   0.1205  0.50124916 22995
TERRA                   
1 25994U 99068A   26164.88860163  .00000364  00000+0  83151-4 0  9994
2 25994  97.9457 214.5655 0001324 201.8095 331.1346 14.61100761409129
CLUSTER II-FM7 (SAMBA)  
1 26410U 00041A   26165.90943278  .00008926  00000+0  00000+0 0  9993
2 26410 149.9112  50.5199 9050263 267.6271 359.8755  0.44879327 20296
CLUSTER II-FM8 (TANGO)  
1 26464U 00045B   26163.93586103  .00006615  00000+0  00000+0 0  9990
2 26464 150.1475  51.1959 9055540 268.1324   3.0125  0.44415453 20295
ODIN                    
1 26702U 01007A   26164.85474292  .00190366  00000+0  12713-2 0  9995
2 26702  97.3842 205.5864 0006686 146.6594 213.5093 15.74753031388876
TIMED                   
1 26998U 01055B   26164.66292213  .00001156  00000+0  10851-3 0  9995
2 26998  74.0675 242.1144 0000928 342.5131  17.6021 14.95288525330294
CORIOLIS                
1 27640U 03001A   26164.88532249  .00000089  00000+0  62201-4 0  9994
2 27640  98.7125 171.8205 0013206 218.7806 141.2424 14.19943971213755
SORCE                   
1 27651U 03004A   26164.75242728  .00002846  00000+0  21434-3 0  9990
2 27651  39.9912 281.2748 0016917  23.3384 336.8175 15.03697081271389
MOST                    
1 27843U 03031D   26164.76184399  .00000063  00000+0  49190-4 0  9992
2 27843  98.7045 172.5357 0008691 261.6529  98.3663 14.21321845190224
SCISAT 1                
1 27858U 03036A   26164.37644191  .00000466  00000+0  64217-4 0  9995
2 27858  73.9285 178.9144 0008628 248.3864 111.6394 14.81444219230883
SWIFT                   
1 28485U 04047A   26164.81561904  .00048836  00000+0  41080-3 0  9999
2 28485  20.5520 210.9067 0001739 231.4191 128.6100 15.68026252186335
HINODE (SOLAR-B)        
1 29479U 06041A   26164.77877565  .00000650  00000+0  12007-3 0  9996
2 29479  98.0549 180.9816 0016123 301.5450  58.4180 14.68618916 54377
SHIJIAN-6 02A (SJ-6 02A)
1 29505U 06046A   26164.85932416  .00006233  00000+0  31969-3 0  9998
2 29505  97.6366 205.9003 0004217 134.0398 226.1183 15.16905618 71767
SHIJIAN-6 02B (SJ-6 02B)
1 29506U 06046B   26164.88068249  .00001115  00000+0  91044-4 0  9991
2 29506  97.7163 193.9595 0015193  70.0494 290.2365 15.01368697 70247
FGRST (GLAST)           
1 33053U 08029A   26164.56178240  .00003071  00000+0  10986-3 0  9992
2 33053  25.5812 229.6566 0007579 284.3079  75.6618 15.23933052995285
SDO                     
1 36395U 10005A   26164.30669706 -.00000088  00000+0  00000+0 0  9993
2 36395  34.6434  86.4016 0001673  51.3791 132.2019  1.00270114 60022
CRYOSAT 2               
1 36508U 10013A   26164.84225786  .00000166  00000+0  40436-4 0  9991
2 36508  92.0352 276.4885 0002180  88.1498 271.9958 14.51898078857590
X-SAT                   
1 37389U 11015C   26164.85566944  .00000053  00000+0  39949-4 0  9999
2 37389  98.3502 142.0372 0014190 358.3835   1.7297 14.25205090787206
GCOM-W1 (SHIZUKU)       
1 38337U 12025A   26164.80393182  .00000428  00000+0  10504-3 0  9993
2 38337  98.2022 105.4108 0001811  77.2775 336.4931 14.57121871748548
NUSTAR                  
1 38358U 12031A   26164.83335647  .00008282  00000+0  45811-3 0  9993
2 38358   6.0264  59.2827 0007168  53.9229 127.9045 15.08774438  1301
NEOSSAT                 
1 39089U 13009D   26164.44644170  .00000138  00000+0  62388-4 0  9993
2 39089  98.4175 344.5681 0009810 256.3381 103.6713 14.35825190696204
BRITE-AUSTRIA           
1 39091U 13009F   26164.44692919  .00000158  00000+0  68447-4 0  9994
2 39091  98.3993 343.9753 0009031 249.1124 110.9097 14.36540717696517
IRIS                    
1 39197U 13033A   26164.79782667  .00001000  00000+0  12062-3 0  9994
2 39197  97.9332   4.0856 0023788 333.2772  26.7216 14.85879320699872
HISAKI (SPRINT-A)       
1 39253U 13049A   26163.93065597  .00000139  00000+0  10132-3 0  9993
2 39253  29.7192 241.6544 0136891 342.3499  17.2350 13.55544353630849
CASSIOPE                
1 39265U 13055A   26164.81587448  .00048430 -44779-6  53049-3 0  9994
2 39265  80.9157  70.8148 0293947  73.7607 289.5747 15.24889463667156
STSAT-3                 
1 39422U 13066G   26164.85005031  .00003426  00000+0  26057-3 0  9994
2 39422  97.6212 134.7915 0011146  53.6998 306.5255 15.02739789683703
SWARM B                 
1 39451U 13067A   26164.79500799  .00003433  00000+0  12249-3 0  9997
2 39451  87.7433 343.3477 0003362  88.2781 271.8853 15.28532647682727
